{
  "type": "FeatureCollection",
  "name": "Guaynabo Wards (Approximate — replace with KML-derived data)",
  "features": [
    {
      "type": "Feature",
      "properties": { "name": "Pueblo Viejo", "ward": "pueblo_viejo" },
      "geometry": {
        "type": "Polygon",
        "coordinates": [[
          [-66.127, 18.432],
          [-66.091, 18.432],
          [-66.088, 18.420],
          [-66.092, 18.405],
          [-66.105, 18.398],
          [-66.118, 18.398],
          [-66.128, 18.406],
          [-66.130, 18.420],
          [-66.127, 18.432]
        ]]
      }
    },
    {
      "type": "Feature",
      "properties": { "name": "Frailes", "ward": "frailes" },
      "geometry": {
        "type": "Polygon",
        "coordinates": [[
          [-66.148, 18.412],
          [-66.128, 18.406],
          [-66.118, 18.398],
          [-66.105, 18.398],
          [-66.092, 18.405],
          [-66.088, 18.420],
          [-66.088, 18.392],
          [-66.095, 18.375],
          [-66.102, 18.370],
          [-66.118, 18.368],
          [-66.132, 18.368],
          [-66.145, 18.375],
          [-66.150, 18.390],
          [-66.148, 18.412]
        ]]
      }
    },
    {
      "type": "Feature",
      "properties": { "name": "Barrio Pueblo", "ward": "barrio_pueblo" },
      "geometry": {
        "type": "Polygon",
        "coordinates": [[
          [-66.118, 18.368],
          [-66.102, 18.370],
          [-66.095, 18.375],
          [-66.092, 18.360],
          [-66.095, 18.350],
          [-66.105, 18.345],
          [-66.115, 18.348],
          [-66.120, 18.358],
          [-66.118, 18.368]
        ]]
      }
    },
    {
      "type": "Feature",
      "properties": { "name": "Santa Rosa", "ward": "santa_rosa" },
      "geometry": {
        "type": "Polygon",
        "coordinates": [[
          [-66.168, 18.412],
          [-66.148, 18.412],
          [-66.150, 18.390],
          [-66.145, 18.375],
          [-66.132, 18.368],
          [-66.132, 18.355],
          [-66.138, 18.348],
          [-66.150, 18.345],
          [-66.160, 18.350],
          [-66.168, 18.360],
          [-66.168, 18.412]
        ]]
      }
    },
    {
      "type": "Feature",
      "properties": { "name": "Camarones", "ward": "camarones" },
      "geometry": {
        "type": "Polygon",
        "coordinates": [[
          [-66.132, 18.368],
          [-66.118, 18.368],
          [-66.120, 18.358],
          [-66.115, 18.348],
          [-66.105, 18.345],
          [-66.095, 18.350],
          [-66.092, 18.360],
          [-66.090, 18.345],
          [-66.092, 18.332],
          [-66.100, 18.325],
          [-66.115, 18.322],
          [-66.128, 18.325],
          [-66.135, 18.332],
          [-66.138, 18.345],
          [-66.132, 18.355],
          [-66.132, 18.368]
        ]]
      }
    },
    {
      "type": "Feature",
      "properties": { "name": "Guaraguao", "ward": "guaraguao" },
      "geometry": {
        "type": "Polygon",
        "coordinates": [[
          [-66.168, 18.360],
          [-66.160, 18.350],
          [-66.150, 18.345],
          [-66.138, 18.348],
          [-66.135, 18.332],
          [-66.140, 18.322],
          [-66.148, 18.318],
          [-66.158, 18.320],
          [-66.168, 18.328],
          [-66.168, 18.360]
        ]]
      }
    },
    {
      "type": "Feature",
      "properties": { "name": "Río", "ward": "rio" },
      "geometry": {
        "type": "Polygon",
        "coordinates": [[
          [-66.092, 18.375],
          [-66.088, 18.392],
          [-66.082, 18.390],
          [-66.070, 18.385],
          [-66.060, 18.375],
          [-66.058, 18.362],
          [-66.060, 18.345],
          [-66.068, 18.330],
          [-66.080, 18.322],
          [-66.092, 18.322],
          [-66.100, 18.325],
          [-66.092, 18.332],
          [-66.090, 18.345],
          [-66.092, 18.360],
          [-66.095, 18.375],
          [-66.092, 18.375]
        ]]
      }
    },
    {
      "type": "Feature",
      "properties": { "name": "Mamey", "ward": "mamey" },
      "geometry": {
        "type": "Polygon",
        "coordinates": [[
          [-66.135, 18.332],
          [-66.128, 18.325],
          [-66.115, 18.322],
          [-66.100, 18.325],
          [-66.092, 18.322],
          [-66.092, 18.312],
          [-66.100, 18.308],
          [-66.115, 18.308],
          [-66.128, 18.312],
          [-66.135, 18.318],
          [-66.140, 18.322],
          [-66.135, 18.332]
        ]]
      }
    },
    {
      "type": "Feature",
      "properties": { "name": "Hato Nuevo", "ward": "hato_nuevo" },
      "geometry": {
        "type": "Polygon",
        "coordinates": [[
          [-66.092, 18.322],
          [-66.080, 18.322],
          [-66.068, 18.330],
          [-66.060, 18.345],
          [-66.058, 18.330],
          [-66.060, 18.315],
          [-66.068, 18.308],
          [-66.080, 18.305],
          [-66.092, 18.308],
          [-66.092, 18.312],
          [-66.092, 18.322]
        ]]
      }
    },
    {
      "type": "Feature",
      "properties": { "name": "Sonadora", "ward": "sonadora" },
      "geometry": {
        "type": "Polygon",
        "coordinates": [[
          [-66.168, 18.328],
          [-66.158, 18.320],
          [-66.148, 18.318],
          [-66.140, 18.322],
          [-66.135, 18.318],
          [-66.128, 18.312],
          [-66.128, 18.305],
          [-66.135, 18.300],
          [-66.148, 18.298],
          [-66.160, 18.302],
          [-66.168, 18.312],
          [-66.168, 18.328]
        ]]
      }
    }
  ]
}
